[{"OBJECT_NAME":"STARLINK-34781","OBJECT_ID":"2025-165T","EPOCH":"2026-03-09T19:25:09.117120","MEAN_MOTION":15.05647045,"ECCENTRICITY":0.00010435,"INCLINATION":97.6023,"RA_OF_ASC_NODE":147.4275,"ARG_OF_PERICENTER":112.58,"MEAN_ANOMALY":247.5538,"EPHEMERIS_TYPE":0,"CLASSIFICATION_TYPE":"U","NORAD_CAT_ID":65073,"ELEMENT_SET_NO":999,"REV_AT_EPOCH":3481,"BSTAR":0.00036232994,"MEAN_MOTION_DOT":5.171e-5,"MEAN_MOTION_DDOT":0},{"OBJECT_NAME":"CICERO 3","OBJECT_ID":"2017-042AA","EPOCH":"2026-03-09T22:34:09.559488","MEAN_MOTION":15.06999011,"ECCENTRICITY":0.00123402,"INCLINATION":97.4153,"RA_OF_ASC_NODE":238.2133,"ARG_OF_PERICENTER":85.148,"MEAN_ANOMALY":275.1157,"EPHEMERIS_TYPE":0,"CLASSIFICATION_TYPE":"U","NORAD_CAT_ID":42849,"ELEMENT_SET_NO":999,"REV_AT_EPOCH":47226,"BSTAR":0.00039473976,"MEAN_MOTION_DOT":5.861e-5,"MEAN_MOTION_DDOT":0}]
